STARLINK-1168           
1 45072C 20006AE  22340.93868056 -.00013270  00000-0 -88945-3 0  3404
2 45072  53.0526 203.1386 0001475  72.1685  12.0800 15.06396511    19
STARLINK-1170           
1 45073C 20006AF  22340.94006944 -.00018251  00000-0 -12232-2 0  3405
2 45073  53.0528 203.1216 0001892  48.3752 263.4088 15.06404383    14
STARLINK-1172           
1 45074C 20006AG  22340.95048611  .00009011  00000-0  60380-3 0  3404
2 45074  53.0535 203.0791 0001645  74.1763  14.1287 15.06387546    18
STARLINK-1174           
1 45075C 20006AH  22340.95881944  .00010415  00000-0  69789-3 0  3401
2 45075  53.0544 203.0491 0001654  67.8294 245.7094 15.06383210    16
STARLINK-1180           
1 45076C 20006AJ  22340.92270833  .00008497  00000-0  56961-3 0  3403
2 45076  53.0539 203.2044 0001583  58.2534  24.4433 15.06371970    18
STARLINK-1177           
1 45078C 20006AL  22340.94284722  .00008758  00000-0  58703-3 0  3405
2 45078  53.0527 203.1202 0001578  70.0724  16.7458 15.06375346    11
STARLINK-1149           
1 45079C 20006AM  22340.96159722  .00009717  00000-0  65120-3 0  3406
2 45079  53.0530 203.0245 0001559  79.1204 234.5843 15.06379529    19
STARLINK-1153           
1 45080C 20006AN  22340.92756944  .00008455  00000-0  56645-3 0  3403
2 45080  53.0538 203.1863 0001876  67.3301  16.5879 15.06391554    14
STARLINK-1151           
1 45081C 20006AP  22340.94979167 -.00013919  00000-0 -93286-3 0  3405
2 45081  53.0522 203.0619 0001991  47.7061 281.9499 15.06400482    16
STARLINK-1160           
1 45082C 20006AQ  22340.96090278  .00010050  00000-0  67357-3 0  3406
2 45082  53.0519 203.0261 0001533  55.3925  34.6084 15.06376155    14
STARLINK-1190           
1 45083C 20006AR  22340.93243056  .00008859  00000-0  59375-3 0  3403
2 45083  53.0530 223.1555 0001580  65.4356  54.8869 15.06378399    16
STARLINK-1173           
1 45084C 20006AS  22340.95604167  .00008436  00000-0  56540-3 0  3402
2 45084  53.0511 183.0671 0001633  60.1140 288.2868 15.06379456    18
STARLINK-1179           
1 45085C 20006AT  22340.91576389  .00006589  00000-0  44168-3 0  3403
2 45085  53.0515 183.2415 0001705  70.5521  79.3310 15.06373921    11
STARLINK-1185           
1 45087C 20006AV  22340.94354167  .00006496  00000-0  43544-3 0  3400
2 45087  53.0529 183.1124 0002173  52.4110 328.1840 15.06371834    11
STARLINK-1183           
1 45088C 20006AW  22340.92270833 -.00016808  00000-0 -11265-2 0  3400
2 45088  53.0518 183.1910 0001636  63.4639  84.1229 15.06404006    12
STARLINK-1136           
1 45089C 20006AX  22340.93451389  .00008512  00000-0  57020-3 0  3400
2 45089  53.0521 183.2418 0001953  64.9186 106.5724 15.06398162    10
STARLINK-1176           
1 45090C 20006AY  22340.96506944  .00007638  00000-0  51187-3 0  3409
2 45090  53.0511 183.0106 0001315  72.1622  30.4027 15.06380792    12
STARLINK-1137           
1 45092C 20006BA  22340.96020833  .00008831  00000-0  59195-3 0  3402
2 45092  53.0520 183.0410 0001521  66.5839 144.4320 15.06374860    19
STARLINK-1142           
1 45093C 20006BB  22340.95465278  .00008790  00000-0  58920-3 0  3407
2 45093  53.0519 183.0612 0001573  57.4008 143.4847 15.06372552    15
STARLINK-1146           
1 45094C 20006BC  22340.96020833  .00008316  00000-0  55722-3 0  3404
2 45094  53.0527 183.0267 0001635  60.8378  95.3520 15.06388313    13
STARLINK-1147           
1 45095C 20006BD  22340.96437500  .00007904  00000-0  52989-3 0  3402
2 45095  53.0537 183.0039 0001903  53.4815 105.2864 15.06369962    15
STARLINK-1152           
1 45096C 20006BE  22340.96576389  .00008195  00000-0  54914-3 0  3405
2 45096  53.0535 183.0072 0001699  61.6299 139.5553 15.06387632    19
STARLINK-1184           
1 45098C 20006BG  22340.94562500  .00009474  00000-0  63477-3 0  3400
2 45098  53.0534 183.0986 0001818  67.4265 124.4861 15.06388229    12
STARLINK-1186           
1 45099C 20006BH  22340.94701389  .00004345  00000-0  29111-3 0  3400
2 45099  53.0504 183.1007 0001794  65.4894 313.9968 15.06393281    11
STARLINK-1193           
1 45100C 20006BJ  22340.93520833  .00009307  00000-0  62364-3 0  3405
2 45100  53.0524 183.1587 0001948  51.6971 103.6448 15.06383052    15
STARLINK-1194           
1 45101C 20006BK  22340.92826389 -.00016381  00000-0 -10978-2 0  3405
2 45101  53.0527 183.1637 0001695  59.4839  83.3754 15.06404072    13
STARLINK-1195           
1 45102C 20006BL  22340.95187500 -.00017289  00000-0 -11587-2 0  3409
2 45102  53.0528 183.0717 0001601  66.2693  79.5742 15.06407291    14
STARLINK-1196           
1 45103C 20006BM  22340.91854167  .00009344  00000-0  62623-3 0  3405
2 45103  53.0516 183.2075 0001389  82.0189  67.9854 15.06379114    17
STARLINK-1138           
1 45178C 20012A   22340.95743056 -.00007440  00000-0 -49871-3 0  3409
2 45178  53.0527 343.0471 0001579  65.0526  10.9355 15.06390736    11
STARLINK-1143           
1 45179C 20012B   22340.95951389  .00011639  00000-0  78007-3 0  3406
2 45179  53.0541 343.0392 0001787  53.5660  18.8917 15.06374096    14
STARLINK-1200           
1 45181C 20012D   22340.94493056 -.00004113  00000-0 -27563-3 0  3402
2 45181  53.0529 343.1070 0001778  55.7397  12.4355 15.06392018    18
STARLINK-1201           
1 45182C 20012E   22340.93034722  .00003924  00000-0  26297-3 0  3403
2 45182  53.0549 323.1614 0001692  56.5743 182.4631 15.06387364    15
STARLINK-1202           
1 45183C 20012F   22340.95048611  .00013026  00000-0  87297-3 0  3409
2 45183  53.0541 343.0823 0001917  51.5526 206.7620 15.06375241    14
STARLINK-1205           
1 45184C 20012G   22340.93381944 -.00009686  00000-0 -64921-3 0  3405
2 45184  53.0545 323.1632 0001662  59.9995 157.8915 15.06395153    12
STARLINK-1216           
1 45185C 20012H   22340.94145833 -.00010764  00000-0 -72147-3 0  3400
2 45185  53.0540 343.1305 0001611  52.6861 196.6351 15.06394297    16
STARLINK-1224           
1 45186C 20012J   22340.95118056  .00012863  00000-0  86207-3 0  3401
2 45186  53.0539 343.0904 0001697  60.1670 161.9091 15.06375448    18
STARLINK-1225           
1 45187C 20012K   22340.94631944 -.00001477  00000-0 -98977-4 0  3406
2 45187  53.0533 343.1086 0001556  58.4937 117.2256 15.06386474    13
STARLINK-1228           
1 45188C 20012L   22340.94701389 -.00002774  00000-0 -18588-3 0  3408
2 45188  53.0532 303.0894 0001822  43.0112 336.4612 15.06392984    10
STARLINK-1230           
1 45189C 20012M   22340.95048611 -.00010228  00000-0 -68555-3 0  3404
2 45189  53.0537 343.0865 0001565  69.0264 109.2908 15.06392916    17
STARLINK-1234           
1 45190C 20012N   22340.94979167  .00010721  00000-0  71846-3 0  3407
2 45190  53.0535 303.0874 0001820  51.5373  23.0031 15.06379116    11
STARLINK-1236           
1 45191C 20012P   22340.93729167 -.00009633  00000-0 -64563-3 0  3400
2 45191  53.0543 343.1434 0001744  50.7378  15.9705 15.06396312    14
STARLINK-1237           
1 45192C 20012Q   22340.94006944  .00014242  00000-0  95444-3 0  3405
2 45192  53.0546 343.1331 0001743  56.8223 164.9955 15.06375123    18
STARLINK-1239           
1 45193C 20012R   22340.93381944 -.00003183  00000-0 -21335-3 0  3403
2 45193  53.0538 343.1622 0001881  52.2111 195.6769 15.06386623    13
STARLINK-1240           
1 45194C 20012S   22340.93798611 -.00009241  00000-0 -61934-3 0  3407
2 45194  53.0543 343.1340 0001647  58.2209 192.2550 15.06395157    14
STARLINK-1244           
1 45196C 20012U   22340.93937500  .00015124  00000-0  10137-2 0  3404
2 45196  53.0544 343.1363 0001948  51.5863 306.4659 15.06371342    17
STARLINK-1269           
1 45197C 20012V   22340.94145833 -.00010569  00000-0 -70835-3 0  3408
2 45197  53.0543 343.1232 0001764  48.3842  20.9328 15.06396248    12
STARLINK-1154           
1 45198C 20012W   22340.96229167 -.00002543  00000-0 -17046-3 0  3402
2 45198  53.0543 323.0370 0001718  54.5329 177.8497 15.06387111    19
STARLINK-1197           
1 45199C 20012X   22340.94909722  .00001380  00000-0  92494-4 0  3400
2 45199  53.0541 323.0946 0001614  65.8840  74.9053 15.06381057    13
STARLINK-1199           
1 45201C 20012Z   22340.94770833  .00000062  00000-0  41651-5 0  3409
2 45201  53.0553 323.0925 0001651  68.0570  25.2032 15.06381889    12
STARLINK-1206           
1 45204C 20012AC  22340.93381944  .00000384  00000-0  25743-4 0  3402
2 45204  53.0543 323.1567 0001787  55.8684 182.0121 15.06384103    10
STARLINK-1208           
1 45205C 20012AD  22340.92756944  .00003344  00000-0  22411-3 0  3405
2 45205  53.0551 323.1728 0001590  53.0695  30.9044 15.06383253    13
STARLINK-1209           
1 45206C 20012AE  22340.95048611  .00010714  00000-0  71806-3 0  3405
2 45206  53.0554 303.0705 0001545  64.3809 353.9251 15.06375602    18
STARLINK-1210           
1 45207C 20012AF  22340.95118056  .00024699  00000-0  16562-2 0  3401
2 45207  53.0548 323.0763 0001576  56.1839  35.9078 15.06345146    18
STARLINK-1211           
1 45208C 20012AG  22340.93520833  .00011315  00000-0  77507-3 0  3408
2 45208  52.9987 323.1494 0001376  71.1810  14.0530 15.05564346    15
STARLINK-1219           
1 45210C 20012AJ  22340.94909722  .00005296  00000-0  35489-3 0  3404
2 45210  53.0538 323.0947 0001748  61.1809 359.5949 15.06387446    10
STARLINK-1231           
1 45212C 20012AL  22340.94493056  .00012506  00000-0  83801-3 0  3407
2 45212  53.0545 323.1154 0001764  60.3565 157.8177 15.06380963    18
STARLINK-1232           
1 45213C 20012AM  22340.94493056  .00009338  00000-0  20132-3 0  3405
2 45213  53.0574 249.5768 0005218  72.8683  20.1583 15.43968722    19
STARLINK-1233           
1 45214C 20012AN  22340.94909722 -.00002906  00000-0 -19478-3 0  3405
2 45214  53.0544 323.0792 0001863  56.0189 329.8881 15.06391484    13
STARLINK-1245           
1 45215C 20012AP  22340.94701389  .00004845  00000-0  32476-3 0  3400
2 45215  53.0527 323.1022 0001793  59.2501 330.2483 15.06381341    12
